[{"OBJECT_NAME":"VSP RF A1","OBJECT_ID":"2024-043AP","EPOCH":"2026-03-07T00:44:15.345024","MEAN_MOTION":15.26179596,"ECCENTRICITY":0.00094313,"INCLINATION":97.5247,"RA_OF_ASC_NODE":201.5379,"ARG_OF_PERICENTER":234.6315,"MEAN_ANOMALY":125.4042,"EPHEMERIS_TYPE":0,"CLASSIFICATION_TYPE":"U","NORAD_CAT_ID":59135,"ELEMENT_SET_NO":999,"REV_AT_EPOCH":11140,"BSTAR":2.5198753e-5,"MEAN_MOTION_DOT":5.77e-6,"MEAN_MOTION_DDOT":0},{"OBJECT_NAME":"STARLINK-35728","OBJECT_ID":"2025-265AE","EPOCH":"2026-03-09T22:28:28.725312","MEAN_MOTION":15.27567523,"ECCENTRICITY":8.01e-5,"INCLINATION":42.9973,"RA_OF_ASC_NODE":276.3177,"ARG_OF_PERICENTER":237.6519,"MEAN_ANOMALY":122.4255,"EPHEMERIS_TYPE":0,"CLASSIFICATION_TYPE":"U","NORAD_CAT_ID":66544,"ELEMENT_SET_NO":999,"REV_AT_EPOCH":1715,"BSTAR":0.0010536936,"MEAN_MOTION_DOT":0.00028836,"MEAN_MOTION_DDOT":0}]
