VSP RF A1               
1 59135U 24043AP  26066.03073316  .00000577  00000+0  25199-4 0  9997
2 59135  97.5247 201.5379 0009431 234.6315 125.4042 15.26179596111403
STARLINK-35728          
1 66544U 25265AE  26068.93644358  .00028836  00000+0  10537-2 0  9993
2 66544  42.9973 276.3177 0000801 237.6519 122.4255 15.27567523 17154
